{"fetched_at":"2026-07-05T12:47:58.728Z","source":"https://celestrak.org/NORAD/elements/gp.php?NAME=HAWK&FORMAT=JSON","constellation":"hawkeye-360","records":[{"OBJECT_NAME":"HAWK-A","OBJECT_ID":"2018-099H","EPOCH":"2026-07-04T22:28:03.487872","CLASSIFICATION_TYPE":"U","MEAN_MOTION":15.24869219,"ECCENTRICITY":0.00337128,"INCLINATION":97.3899,"RA_OF_ASC_NODE":237.942,"ARG_OF_PERICENTER":220.5831,"MEAN_ANOMALY":139.2893,"EPHEMERIS_TYPE":0,"NORAD_CAT_ID":43765,"ELEMENT_SET_NO":999,"REV_AT_EPOCH":41580,"BSTAR":0.00046599763,"MEAN_MOTION_DOT":0.00011705,"MEAN_MOTION_DDOT":0},{"OBJECT_NAME":"HAWK-B","OBJECT_ID":"2018-099AN","EPOCH":"2026-07-04T14:01:59.560896","CLASSIFICATION_TYPE":"U","MEAN_MOTION":15.23026356,"ECCENTRICITY":0.00305285,"INCLINATION":97.3945,"RA_OF_ASC_NODE":236.9736,"ARG_OF_PERICENTER":240.5702,"MEAN_ANOMALY":119.2487,"EPHEMERIS_TYPE":0,"NORAD_CAT_ID":43794,"ELEMENT_SET_NO":999,"REV_AT_EPOCH":41568,"BSTAR":0.00045148426,"MEAN_MOTION_DOT":0.00010696,"MEAN_MOTION_DDOT":0},{"OBJECT_NAME":"HAWK-C","OBJECT_ID":"2018-099AT","EPOCH":"2026-07-04T20:56:09.133152","CLASSIFICATION_TYPE":"U","MEAN_MOTION":15.28371153,"ECCENTRICITY":0.00393313,"INCLINATION":97.3875,"RA_OF_ASC_NODE":238.8788,"ARG_OF_PERICENTER":220.7903,"MEAN_ANOMALY":139.0391,"EPHEMERIS_TYPE":0,"NORAD_CAT_ID":43799,"ELEMENT_SET_NO":999,"REV_AT_EPOCH":41661,"BSTAR":0.00049561854,"MEAN_MOTION_DOT":0.00013945,"MEAN_MOTION_DDOT":0},{"OBJECT_NAME":"HAWK-2C","OBJECT_ID":"2021-006CT","EPOCH":"2026-07-04T16:34:45.172704","CLASSIFICATION_TYPE":"U","MEAN_MOTION":15.34887872,"ECCENTRICITY":0.00083167,"INCLINATION":97.2264,"RA_OF_ASC_NODE":229.6525,"ARG_OF_PERICENTER":130.8284,"MEAN_ANOMALY":229.3682,"EPHEMERIS_TYPE":0,"NORAD_CAT_ID":47502,"ELEMENT_SET_NO":999,"REV_AT_EPOCH":30218,"BSTAR":0.00031520663,"MEAN_MOTION_DOT":0.00010601,"MEAN_MOTION_DDOT":0},{"OBJECT_NAME":"HAWK-2A","OBJECT_ID":"2021-006CW","EPOCH":"2026-07-05T05:09:07.427520","CLASSIFICATION_TYPE":"U","MEAN_MOTION":15.34913155,"ECCENTRICITY":0.000782,"INCLINATION":97.2306,"RA_OF_ASC_NODE":230.8544,"ARG_OF_PERICENTER":132.2933,"MEAN_ANOMALY":227.8975,"EPHEMERIS_TYPE":0,"NORAD_CAT_ID":47505,"ELEMENT_SET_NO":999,"REV_AT_EPOCH":30226,"BSTAR":0.00032772591,"MEAN_MOTION_DOT":0.00011033,"MEAN_MOTION_DDOT":0},{"OBJECT_NAME":"HAWK-2B","OBJECT_ID":"2021-006CZ","EPOCH":"2026-07-04T16:30:00.647136","CLASSIFICATION_TYPE":"U","MEAN_MOTION":15.35020288,"ECCENTRICITY":0.00083508,"INCLINATION":97.2178,"RA_OF_ASC_NODE":228.6413,"ARG_OF_PERICENTER":132.1692,"MEAN_ANOMALY":228.0263,"EPHEMERIS_TYPE":0,"NORAD_CAT_ID":47508,"ELEMENT_SET_NO":999,"REV_AT_EPOCH":30218,"BSTAR":0.00035720155,"MEAN_MOTION_DOT":0.00012077,"MEAN_MOTION_DDOT":0},{"OBJECT_NAME":"HAWK-3B","OBJECT_ID":"2021-059BE","EPOCH":"2026-07-04T12:43:16.243968","CLASSIFICATION_TYPE":"U","MEAN_MOTION":15.71070012,"ECCENTRICITY":0.00035371,"INCLINATION":97.6642,"RA_OF_ASC_NODE":23.896,"ARG_OF_PERICENTER":241.689,"MEAN_ANOMALY":118.4015,"EPHEMERIS_TYPE":0,"NORAD_CAT_ID":48931,"ELEMENT_SET_NO":999,"REV_AT_EPOCH":28057,"BSTAR":0.00057884449,"MEAN_MOTION_DOT":0.00073007,"MEAN_MOTION_DDOT":0},{"OBJECT_NAME":"HAWK-3C","OBJECT_ID":"2021-059BX","EPOCH":"2026-07-05T00:56:32.794080","CLASSIFICATION_TYPE":"U","MEAN_MOTION":15.71136205,"ECCENTRICITY":0.00037874,"INCLINATION":97.6756,"RA_OF_ASC_NODE":30.1706,"ARG_OF_PERICENTER":240.3968,"MEAN_ANOMALY":119.6917,"EPHEMERIS_TYPE":0,"NORAD_CAT_ID":48948,"ELEMENT_SET_NO":999,"REV_AT_EPOCH":28065,"BSTAR":0.00056598041,"MEAN_MOTION_DOT":0.0007157,"MEAN_MOTION_DDOT":0},{"OBJECT_NAME":"HAWK-3A","OBJECT_ID":"2021-059CG","EPOCH":"2026-07-04T12:42:38.895840","CLASSIFICATION_TYPE":"U","MEAN_MOTION":15.71064393,"ECCENTRICITY":0.00037268,"INCLINATION":97.6707,"RA_OF_ASC_NODE":26.8019,"ARG_OF_PERICENTER":245.9261,"MEAN_ANOMALY":114.1611,"EPHEMERIS_TYPE":0,"NORAD_CAT_ID":48957,"ELEMENT_SET_NO":999,"REV_AT_EPOCH":28057,"BSTAR":0.00058490043,"MEAN_MOTION_DOT":0.00073764,"MEAN_MOTION_DDOT":0},{"OBJECT_NAME":"HAWK-5C","OBJECT_ID":"2022-057Y","EPOCH":"2026-07-04T21:46:26.926176","CLASSIFICATION_TYPE":"U","MEAN_MOTION":15.52046769,"ECCENTRICITY":0.00037398,"INCLINATION":97.6617,"RA_OF_ASC_NODE":346.7263,"ARG_OF_PERICENTER":23.9765,"MEAN_ANOMALY":336.166,"EPHEMERIS_TYPE":0,"NORAD_CAT_ID":52754,"ELEMENT_SET_NO":999,"REV_AT_EPOCH":22909,"BSTAR":0.00048235443,"MEAN_MOTION_DOT":0.00029035,"MEAN_MOTION_DDOT":0},{"OBJECT_NAME":"HAWK-5B","OBJECT_ID":"2022-057AA","EPOCH":"2026-07-04T21:46:11.109792","CLASSIFICATION_TYPE":"U","MEAN_MOTION":15.52050403,"ECCENTRICITY":0.00043013,"INCLINATION":97.6632,"RA_OF_ASC_NODE":345.0773,"ARG_OF_PERICENTER":12.9163,"MEAN_ANOMALY":347.2198,"EPHEMERIS_TYPE":0,"NORAD_CAT_ID":52756,"ELEMENT_SET_NO":999,"REV_AT_EPOCH":22909,"BSTAR":0.00049474706,"MEAN_MOTION_DOT":0.00029793,"MEAN_MOTION_DDOT":0},{"OBJECT_NAME":"HAWK-5A","OBJECT_ID":"2022-057AB","EPOCH":"2026-07-04T21:45:54.247968","CLASSIFICATION_TYPE":"U","MEAN_MOTION":15.52050583,"ECCENTRICITY":0.00042354,"INCLINATION":97.6628,"RA_OF_ASC_NODE":345.9084,"ARG_OF_PERICENTER":16.9021,"MEAN_ANOMALY":343.2371,"EPHEMERIS_TYPE":0,"NORAD_CAT_ID":52757,"ELEMENT_SET_NO":999,"REV_AT_EPOCH":22909,"BSTAR":0.00049041079,"MEAN_MOTION_DOT":0.0002953,"MEAN_MOTION_DDOT":0},{"OBJECT_NAME":"HAWK-6B","OBJECT_ID":"2023-011A","EPOCH":"2026-07-04T15:00:42.329088","CLASSIFICATION_TYPE":"U","MEAN_MOTION":15.23088355,"ECCENTRICITY":0.00025175,"INCLINATION":40.4975,"RA_OF_ASC_NODE":250.3511,"ARG_OF_PERICENTER":181.3934,"MEAN_ANOMALY":178.6868,"EPHEMERIS_TYPE":0,"NORAD_CAT_ID":55324,"ELEMENT_SET_NO":999,"REV_AT_EPOCH":19050,"BSTAR":0.00027895297,"MEAN_MOTION_DOT":0.00006526,"MEAN_MOTION_DDOT":0},{"OBJECT_NAME":"HAWK-6C","OBJECT_ID":"2023-011C","EPOCH":"2026-07-05T05:09:35.304480","CLASSIFICATION_TYPE":"U","MEAN_MOTION":15.23094987,"ECCENTRICITY":0.00029537,"INCLINATION":40.4958,"RA_OF_ASC_NODE":243.7478,"ARG_OF_PERICENTER":167.8665,"MEAN_ANOMALY":192.2216,"EPHEMERIS_TYPE":0,"NORAD_CAT_ID":55326,"ELEMENT_SET_NO":999,"REV_AT_EPOCH":19060,"BSTAR":0.00029898324,"MEAN_MOTION_DOT":0.0000701,"MEAN_MOTION_DDOT":0},{"OBJECT_NAME":"HAWK-6A","OBJECT_ID":"2023-011D","EPOCH":"2026-07-05T05:09:38.280960","CLASSIFICATION_TYPE":"U","MEAN_MOTION":15.23096203,"ECCENTRICITY":0.00025043,"INCLINATION":40.4969,"RA_OF_ASC_NODE":245.3741,"ARG_OF_PERICENTER":166.805,"MEAN_ANOMALY":193.2826,"EPHEMERIS_TYPE":0,"NORAD_CAT_ID":55327,"ELEMENT_SET_NO":999,"REV_AT_EPOCH":19060,"BSTAR":0.00030036238,"MEAN_MOTION_DOT":0.00007044,"MEAN_MOTION_DDOT":0},{"OBJECT_NAME":"HAWK-7A","OBJECT_ID":"2023-054P","EPOCH":"2026-07-04T22:18:15.363936","CLASSIFICATION_TYPE":"U","MEAN_MOTION":15.27553055,"ECCENTRICITY":0.00026308,"INCLINATION":97.2675,"RA_OF_ASC_NODE":72.8153,"ARG_OF_PERICENTER":13.4749,"MEAN_ANOMALY":346.6561,"EPHEMERIS_TYPE":0,"NORAD_CAT_ID":56191,"ELEMENT_SET_NO":999,"REV_AT_EPOCH":17973,"BSTAR":0.00032290886,"MEAN_MOTION_DOT":0.00008632,"MEAN_MOTION_DDOT":0}]}
