HAWK-A                  
1 43765U 18099H   26185.93615148  .00011705  00000+0  46600-3 0  9993
2 43765  97.3899 237.9420 0033712 220.5831 139.2893 15.24869219415806
HAWK-B                  
1 43794U 18099AN  26185.58471714  .00010696  00000+0  45148-3 0  9999
2 43794  97.3945 236.9736 0030528 240.5702 119.2487 15.23026356415689
HAWK-C                  
1 43799U 18099AT  26185.87232793  .00013945  00000+0  49562-3 0  9992
2 43799  97.3875 238.8788 0039331 220.7903 139.0391 15.28371153416619
HAWK-2C                 
1 47502U 21006CT  26185.69080061  .00010601  00000+0  31521-3 0  9991
2 47502  97.2264 229.6525 0008316 130.8284 229.3682 15.34887872302184
HAWK-2A                 
1 47505U 21006CW  26186.21466930  .00011033  00000+0  32773-3 0  9996
2 47505  97.2306 230.8544 0007820 132.2933 227.8975 15.34913155302266
HAWK-2B                 
1 47508U 21006CZ  26185.68750749  .00012077  00000+0  35720-3 0  9997
2 47508  97.2178 228.6413 0008350 132.1692 228.0263 15.35020288302187
HAWK-3B                 
1 48931U 21059BE  26185.53004912  .00073007  00000+0  57884-3 0  9999
2 48931  97.6642  23.8960 0003537 241.6890 118.4015 15.71070012280573
HAWK-3C                 
1 48948U 21059BX  26186.03926845  .00071570  00000+0  56598-3 0  9995
2 48948  97.6756  30.1706 0003787 240.3968 119.6917 15.71136205280655
HAWK-3A                 
1 48957U 21059CG  26185.52961685  .00073764  00000+0  58490-3 0  9999
2 48957  97.6707  26.8019 0003726 245.9261 114.1611 15.71064393280570
HAWK-5C                 
1 52754U 22057Y   26185.90725609  .00029035  00000+0  48235-3 0  9992
2 52754  97.6617 346.7263 0003739  23.9765 336.1660 15.52046769229098
HAWK-5B                 
1 52756U 22057AA  26185.90707303  .00029793  00000+0  49475-3 0  9993
2 52756  97.6632 345.0773 0004301  12.9163 347.2198 15.52050403229090
HAWK-5A                 
1 52757U 22057AB  26185.90687787  .00029530  00000+0  49041-3 0  9995
2 52757  97.6628 345.9084 0004235  16.9021 343.2371 15.52050583229091
HAWK-6B                 
1 55324U 23011A   26185.62548992  .00006526  00000+0  27895-3 0  9995
2 55324  40.4975 250.3511 0002517 181.3934 178.6868 15.23088355190500
HAWK-6C                 
1 55326U 23011C   26186.21499195  .00007010  00000+0  29898-3 0  9997
2 55326  40.4958 243.7478 0002953 167.8665 192.2216 15.23094987190603
HAWK-6A                 
1 55327U 23011D   26186.21502640  .00007044  00000+0  30036-3 0  9991
2 55327  40.4969 245.3741 0002504 166.8050 193.2826 15.23096203190607
HAWK-7A                 
1 56191U 23054P   26185.92934449  .00008632  00000+0  32291-3 0  9990
2 56191  97.2675  72.8153 0002630  13.4749 346.6561 15.27553055179731
